{
"type": "FeatureCollection",
"name": "core_arthropods_locations",
"crs": { "type": "name", "properties": { "name": "urn:ogc:def:crs:OGC:1.3:CRS84" } },
"features": [
{ "type": "Feature", "properties": { "site_code": "AA-17" }, "geometry": { "type": "Polygon", "coordinates": [ [ [ -111.801736643622334, 33.451568236016257 ], [ -111.801744943087826, 33.452470119618276 ], [ -111.800669040512389, 33.452477072197375 ], [ -111.800660752181471, 33.451575188358753 ], [ -111.801736643622334, 33.451568236016257 ] ] ] } },
{ "type": "Feature", "properties": { "site_code": "AB-19" }, "geometry": { "type": "Polygon", "coordinates": [ [ [ -111.774135752975326, 33.351167632169393 ], [ -111.774143736283449, 33.35206953638145 ], [ -111.773069063300781, 33.352076231760897 ], [ -111.773061091072449, 33.351174327320642 ], [ -111.774135752975326, 33.351167632169393 ] ] ] } },
{ "type": "Feature", "properties": { "site_code": "AC-16" }, "geometry": { "type": "Polygon", "coordinates": [ [ [ -111.719939776228458, 33.479168979440985 ], [ -111.719947236788315, 33.480070876176001 ], [ -111.718870972696237, 33.480077123505303 ], [ -111.718863523286998, 33.479175226557778 ], [ -111.719939776228458, 33.479168979440985 ] ] ] } },
{ "type": "Feature", "properties": { "site_code": "AC-20" }, "geometry": { "type": "Polygon", "coordinates": [ [ [ -111.723560203828541, 33.342617385293714 ], [ -111.723567663181512, 33.343519301189545 ], [ -111.722493082809635, 33.343525557459003 ], [ -111.722485634532333, 33.342623641349931 ], [ -111.723560203828541, 33.342617385293714 ] ] ] } },
{ "type": "Feature", "properties": { "site_code": "AD-10" }, "geometry": { "type": "Polygon", "coordinates": [ [ [ -111.712003439378421, 33.676358141541499 ], [ -111.712010872936574, 33.677260011062288 ], [ -111.7109321566397, 33.677266221380499 ], [ -111.710924734341305, 33.676364351649084 ], [ -111.712003439378421, 33.676358141541499 ] ] ] } },
{ "type": "Feature", "properties": { "site_code": "ADODAM" }, "geometry": { "type": "Polygon", "coordinates": [ [ [ -112.139991601392509, 33.690289193398129 ], [ -112.140003509081424, 33.691190951648508 ], [ -112.138924749344469, 33.691200901054792 ], [ -112.138912852917599, 33.690299142467069 ], [ -112.139991601392509, 33.690289193398129 ] ] ] } },
{ "type": "Feature", "properties": { "site_code": "AF-12" }, "geometry": { "type": "Polygon", "coordinates": [ [ [ -111.622786611814362, 33.609657127543727 ], [ -111.622793097589678, 33.610559023221292 ], [ -111.621715193225882, 33.610564445373676 ], [ -111.6217087186741, 33.609662549512038 ], [ -111.622786611814362, 33.609657127543727 ] ] ] } },
{ "type": "Feature", "properties": { "site_code": "ALF202" }, "geometry": { "type": "Polygon", "coordinates": [ [ [ -111.868408054965499, 33.434202270546791 ], [ -111.868417038639137, 33.435104141331465 ], [ -111.867341368706363, 33.435111668991247 ], [ -111.867332396156996, 33.434209797950359 ], [ -111.868408054965499, 33.434202270546791 ] ] ] } },
{ "type": "Feature", "properties": { "site_code": "ALF91" }, "geometry": { "type": "Polygon", "coordinates": [ [ [ -112.254586591080823, 33.550719374894811 ], [ -112.254599626627922, 33.55162111570688 ], [ -112.253522649835759, 33.551632025789523 ], [ -112.253509625471523, 33.550730284606807 ], [ -112.254586591080823, 33.550719374894811 ] ] ] } },
{ "type": "Feature", "properties": { "site_code": "ALFCHA" }, "geometry": { "type": "Polygon", "coordinates": [ [ [ -111.962392731257466, 33.302372823383067 ], [ -111.96240263744221, 33.303274689631976 ], [ -111.961328616915068, 33.303283003504788 ], [ -111.961318721781268, 33.302381136972329 ], [ -111.962392731257466, 33.302372823383067 ] ] ] } },
{ "type": "Feature", "properties": { "site_code": "ALFPOW" }, "geometry": { "type": "Polygon", "coordinates": [ [ [ -111.700705967258315, 33.349656937691428 ], [ -111.700713192943681, 33.350558857049727 ], [ -111.699638520753851, 33.350564916696904 ], [ -111.699631306148191, 33.349662997132079 ], [ -111.700705967258315, 33.349656937691428 ] ] ] } },
{ "type": "Feature", "properties": { "site_code": "BD" }, "geometry": { "type": "Polygon", "coordinates": [ [ [ -111.929191469291993, 33.395812700736613 ], [ -111.929201067735548, 33.396714562051187 ], [ -111.928125888934787, 33.396722608760989 ], [ -111.928116301593704, 33.395820747172351 ], [ -111.929191469291993, 33.395812700736613 ] ] ] } },
{ "type": "Feature", "properties": { "site_code": "BM" }, "geometry": { "type": "Polygon", "coordinates": [ [ [ -111.946643864218984, 33.410678545817738 ], [ -111.946653648441938, 33.411580400456344 ], [ -111.945578291889817, 33.411588601581748 ], [ -111.945568518777279, 33.410686746663899 ], [ -111.946643864218984, 33.410678545817738 ] ] ] } },
{ "type": "Feature", "properties": { "site_code": "CINWES" }, "geometry": { "type": "Polygon", "coordinates": [ [ [ -111.689258054373298, 33.364839352283177 ], [ -111.689265166109607, 33.365741271625915 ], [ -111.688190304696633, 33.365747234585548 ], [ -111.688183204048457, 33.364845315039624 ], [ -111.689258054373298, 33.364839352283177 ] ] ] } },
{ "type": "Feature", "properties": { "site_code": "CONSTO" }, "geometry": { "type": "Polygon", "coordinates": [ [ [ -111.959802561931156, 33.327401998071792 ], [ -111.95981245085116, 33.328303861368489 ], [ -111.958738122530534, 33.328312158332899 ], [ -111.958728244675157, 33.327410294753335 ], [ -111.959802561931156, 33.327401998071792 ] ] ] } },
{ "type": "Feature", "properties": { "site_code": "COTPEO" }, "geometry": { "type": "Polygon", "coordinates": [ [ [ -112.238562674049618, 33.610535438905444 ], [ -112.238575572276517, 33.611437176495016 ], [ -112.237497845630315, 33.611447964034916 ], [ -112.237484958619589, 33.610546226079165 ], [ -112.238562674049618, 33.610535438905444 ] ] ] } },
{ "type": "Feature", "properties": { "site_code": "DBG" }, "geometry": { "type": "Polygon", "coordinates": [ [ [ -111.942815543241807, 33.463269769207564 ], [ -111.942825307343853, 33.464171617184 ], [ -111.941749300668505, 33.464179796416992 ], [ -111.941739547705808, 33.463277948162279 ], [ -111.942815543241807, 33.463269769207564 ] ] ] } },
{ "type": "Feature", "properties": { "site_code": "DREAMY" }, "geometry": { "type": "Polygon", "coordinates": [ [ [ -112.027919337194177, 33.563454161879513 ], [ -112.027930023022847, 33.564355972134912 ], [ -112.026852803053103, 33.564364913445182 ], [ -112.026842128417854, 33.563463102886033 ], [ -112.027919337194177, 33.563454161879513 ] ] ] } },
{ "type": "Feature", "properties": { "site_code": "DUNCAN" }, "geometry": { "type": "Polygon", "coordinates": [ [ [ -112.429240139198143, 33.492547890688286 ], [ -112.429254956435557, 33.493449575382193 ], [ -112.428178777438049, 33.49346198572448 ], [ -112.428163971348255, 33.492560300608602 ], [ -112.429240139198143, 33.492547890688286 ] ] ] } },
{ "type": "Feature", "properties": { "site_code": "ESTREL" }, "geometry": { "type": "Polygon", "coordinates": [ [ [ -112.369593784650064, 33.368926122885988 ], [ -112.369607917258719, 33.369827848583114 ], [ -112.368533235517489, 33.369839702349168 ], [ -112.368519113989734, 33.368937976248226 ], [ -112.369593784650064, 33.368926122885988 ] ] ] } },
{ "type": "Feature", "properties": { "site_code": "HONEY" }, "geometry": { "type": "Polygon", "coordinates": [ [ [ -112.11218703283204, 33.658286928658853 ], [ -112.112198636093538, 33.65918870021541 ], [ -112.11112026556961, 33.659198398788121 ], [ -112.111108673552806, 33.658296626902576 ], [ -112.11218703283204, 33.658286928658853 ] ] ] } },
{ "type": "Feature", "properties": { "site_code": "I-17" }, "geometry": { "type": "Polygon", "coordinates": [ [ [ -112.57764777634921, 33.440280883510255 ], [ -112.577664099438451, 33.441182514318442 ], [ -112.576588639526861, 33.441196194715943 ], [ -112.576572327553478, 33.440294563442258 ], [ -112.57764777634921, 33.440280883510255 ] ] ] } },
{ "type": "Feature", "properties": { "site_code": "INSIGH" }, "geometry": { "type": "Polygon", "coordinates": [ [ [ -111.968466303340776, 33.35638527209256 ], [ -111.968476292498778, 33.357287128871775 ], [ -111.967401610971024, 33.357295507162867 ], [ -111.96739163289341, 33.356393650098141 ], [ -111.968466303340776, 33.35638527209256 ] ] ] } },
{ "type": "Feature", "properties": { "site_code": "JOHNIC" }, "geometry": { "type": "Polygon", "coordinates": [ [ [ -112.122120259167161, 33.614411948397134 ], [ -112.122131946652416, 33.615313723302926 ], [ -112.121054126508724, 33.615323497343148 ], [ -112.121042450243692, 33.61442172210559 ], [ -112.122120259167161, 33.614411948397134 ] ] ] } },
{ "type": "Feature", "properties": { "site_code": "L-7" }, "geometry": { "type": "Polygon", "coordinates": [ [ [ -112.452664880483468, 33.780605631699878 ], [ -112.452680105358439, 33.781507265031038 ], [ -112.451600348371159, 33.781519973876684 ], [ -112.45158513480294, 33.780618340115261 ], [ -112.452664880483468, 33.780605631699878 ] ] ] } },
{ "type": "Feature", "properties": { "site_code": "M-16" }, "geometry": { "type": "Polygon", "coordinates": [ [ [ -112.444431506520971, 33.486255414073057 ], [ -112.444446477649379, 33.487157093667555 ], [ -112.443370383661104, 33.487169633872739 ], [ -112.443355423676564, 33.486267953851808 ], [ -112.444431506520971, 33.486255414073057 ] ] ] } },
{ "type": "Feature", "properties": { "site_code": "MCDOW" }, "geometry": { "type": "Polygon", "coordinates": [ [ [ -111.70083546047023, 33.70797208484619 ], [ -111.700842786176509, 33.7088739519196 ], [ -111.699763672205066, 33.708880069785984 ], [ -111.699756357776209, 33.707978202505167 ], [ -111.70083546047023, 33.70797208484619 ] ] ] } },
{ "type": "Feature", "properties": { "site_code": "MORR-2" }, "geometry": { "type": "Polygon", "coordinates": [ [ [ -111.724363619553813, 33.3345184507032 ], [ -111.724371084893548, 33.335420367616564 ], [ -111.723296604166592, 33.335426629500546 ], [ -111.723289149898065, 33.334524712373714 ], [ -111.724363619553813, 33.3345184507032 ] ] ] } },
{ "type": "Feature", "properties": { "site_code": "MVLH2" }, "geometry": { "type": "Polygon", "coordinates": [ [ [ -111.688577920383949, 33.410859592188977 ], [ -111.688585037515679, 33.411761504962804 ], [ -111.687509609439388, 33.41176746925143 ], [ -111.68750250342103, 33.410865556274501 ], [ -111.688577920383949, 33.410859592188977 ] ] ] } },
{ "type": "Feature", "properties": { "site_code": "MW" }, "geometry": { "type": "Polygon", "coordinates": [ [ [ -111.72368340942019, 33.436684543961086 ], [ -111.723690896709812, 33.437586446141061 ], [ -111.722615158304208, 33.437592718981655 ], [ -111.722607682141799, 33.436690816588168 ], [ -111.72368340942019, 33.436684543961086 ] ] ] } },
{ "type": "Feature", "properties": { "site_code": "NDV-C" }, "geometry": { "type": "Polygon", "coordinates": [ [ [ -111.678151476725731, 33.311736590190186 ], [ -111.678158459780036, 33.312638519349363 ], [ -111.677084247968665, 33.312644377945716 ], [ -111.677077275973559, 33.311742448586728 ], [ -111.678151476725731, 33.311736590190186 ] ] ] } },
{ "type": "Feature", "properties": { "site_code": "NDV-M" }, "geometry": { "type": "Polygon", "coordinates": [ [ [ -111.681366065136714, 33.31029386791306 ], [ -111.681373080906312, 33.31119579667962 ], [ -111.680298887504108, 33.311201682843652 ], [ -111.680291882792872, 33.310299753876336 ], [ -111.681366065136714, 33.31029386791306 ] ] ] } },
{ "type": "Feature", "properties": { "site_code": "NDV-N" }, "geometry": { "type": "Polygon", "coordinates": [ [ [ -111.681360377447859, 33.313730055328676 ], [ -111.681367394074414, 33.314631983596747 ], [ -111.680293158530034, 33.314637870245328 ], [ -111.680286152963731, 33.313735941776507 ], [ -111.681360377447859, 33.313730055328676 ] ] ] } },
{ "type": "Feature", "properties": { "site_code": "NDV-O" }, "geometry": { "type": "Polygon", "coordinates": [ [ [ -111.679031524916894, 33.311133624592188 ], [ -111.679038516872708, 33.312035553674399 ], [ -111.677964312651682, 33.312041419785885 ], [ -111.677957331754726, 33.311139490503614 ], [ -111.679031524916894, 33.311133624592188 ] ] ] } },
{ "type": "Feature", "properties": { "site_code": "NDV-X" }, "geometry": { "type": "Polygon", "coordinates": [ [ [ -111.681438080966316, 33.311847714043118 ], [ -111.681445097891441, 33.312749642570253 ], [ -111.680370885450074, 33.312755529598256 ], [ -111.680363879584178, 33.311853600870343 ], [ -111.681438080966316, 33.311847714043118 ] ] ] } },
{ "type": "Feature", "properties": { "site_code": "NL" }, "geometry": { "type": "Polygon", "coordinates": [ [ [ -111.933595561985811, 33.40812953870546 ], [ -111.933605210424759, 33.409031397096498 ], [ -111.932529881253629, 33.409039484583339 ], [ -111.932520243923832, 33.408137625916893 ], [ -111.933595561985811, 33.40812953870546 ] ] ] } },
{ "type": "Feature", "properties": { "site_code": "NM" }, "geometry": { "type": "Polygon", "coordinates": [ [ [ -112.070863927293573, 33.598370061933046 ], [ -112.070875074216914, 33.599271854671535 ], [ -112.06979743517438, 33.599281178186381 ], [ -112.069786299463161, 33.598379385131352 ], [ -112.070863927293573, 33.598370061933046 ] ] ] } },
{ "type": "Feature", "properties": { "site_code": "O-9" }, "geometry": { "type": "Polygon", "coordinates": [ [ [ -112.357505021887903, 33.705650996232627 ], [ -112.357519209434756, 33.706552677375683 ], [ -112.356440347214672, 33.706564530465009 ], [ -112.356426170934654, 33.705662848920198 ], [ -112.357505021887903, 33.705650996232627 ] ] ] } },
{ "type": "Feature", "properties": { "site_code": "OCOTIL" }, "geometry": { "type": "Polygon", "coordinates": [ [ [ -111.91566785959246, 33.425776015505562 ], [ -111.915677329103062, 33.426677875896701 ], [ -111.914601776958008, 33.426685811684209 ], [ -111.914592318566491, 33.425783951022936 ], [ -111.91566785959246, 33.425776015505562 ] ] ] } },
{ "type": "Feature", "properties": { "site_code": "P-18" }, "geometry": { "type": "Polygon", "coordinates": [ [ [ -112.290326988377259, 33.411138343644915 ], [ -112.29034032452148, 33.412040092258493 ], [ -112.289265088570033, 33.412051272234038 ], [ -112.289251763531269, 33.411149523239828 ], [ -112.290326988377259, 33.411138343644915 ] ] ] } },
{ "type": "Feature", "properties": { "site_code": "Q-16" }, "geometry": { "type": "Polygon", "coordinates": [ [ [ -112.265493954080128, 33.478276888372811 ], [ -112.265507066927285, 33.479178635956778 ], [ -112.26443099188451, 33.4791896200596 ], [ -112.264417890180113, 33.478287872102065 ], [ -112.265493954080128, 33.478276888372811 ] ] ] } },
{ "type": "Feature", "properties": { "site_code": "Q-7" }, "geometry": { "type": "Polygon", "coordinates": [ [ [ -112.250561092609857, 33.783787099101623 ], [ -112.250574201238067, 33.784688807252508 ], [ -112.249494314208007, 33.784699748509048 ], [ -112.249481216892093, 33.783798039987737 ], [ -112.250561092609857, 33.783787099101623 ] ] ] } },
{ "type": "Feature", "properties": { "site_code": "ROBWEL" }, "geometry": { "type": "Polygon", "coordinates": [ [ [ -111.945203331576863, 33.40815762069083 ], [ -111.94521309997846, 33.409059476072031 ], [ -111.944137774042616, 33.409067664168873 ], [ -111.944128016750071, 33.408165808508862 ], [ -111.945203331576863, 33.40815762069083 ] ] ] } },
{ "type": "Feature", "properties": { "site_code": "ROTHE" }, "geometry": { "type": "Polygon", "coordinates": [ [ [ -112.208394848762481, 33.655096665585411 ], [ -112.208407454083158, 33.655998406840801 ], [ -112.207329160122811, 33.65600894378516 ], [ -112.207316566043531, 33.655107202172346 ], [ -112.208394848762481, 33.655096665585411 ] ] ] } },
{ "type": "Feature", "properties": { "site_code": "SM2" }, "geometry": { "type": "Polygon", "coordinates": [ [ [ -112.015564771993454, 33.333891670854264 ], [ -112.015575237956043, 33.334793518025641 ], [ -112.014500848052833, 33.334802298747711 ], [ -112.014490393157672, 33.333900451277025 ], [ -112.015564771993454, 33.333891670854264 ] ] ] } },
{ "type": "Feature", "properties": { "site_code": "STHMTN" }, "geometry": { "type": "Polygon", "coordinates": [ [ [ -112.00478229538362, 33.358883150310234 ], [ -112.004792660064709, 33.359784996849463 ], [ -112.003717959597765, 33.359793690028781 ], [ -112.003707605997931, 33.358891843193312 ], [ -112.00478229538362, 33.358883150310234 ] ] ] } },
{ "type": "Feature", "properties": { "site_code": "T-11" }, "geometry": { "type": "Polygon", "coordinates": [ [ [ -112.133907953481824, 33.647684202345978 ], [ -112.133919778587057, 33.648585968727993 ], [ -112.132841548326937, 33.648595854050143 ], [ -112.132829734460174, 33.647694087332752 ], [ -112.133907953481824, 33.647684202345978 ] ] ] } },
{ "type": "Feature", "properties": { "site_code": "U-12" }, "geometry": { "type": "Polygon", "coordinates": [ [ [ -112.078829765866473, 33.626786850697137 ], [ -112.078841007769199, 33.62768863692682 ], [ -112.077763017855659, 33.627698036789411 ], [ -112.077751787180674, 33.62679625024073 ], [ -112.078829765866473, 33.626786850697137 ] ] ] } },
{ "type": "Feature", "properties": { "site_code": "USERY" }, "geometry": { "type": "Polygon", "coordinates": [ [ [ -111.615330060344121, 33.470845180045977 ], [ -111.615336434893521, 33.471747097245647 ], [ -111.614260250762399, 33.471752435009705 ], [ -111.614253887359979, 33.470850517628435 ], [ -111.615330060344121, 33.470845180045977 ] ] ] } },
{ "type": "Feature", "properties": { "site_code": "V-14" }, "geometry": { "type": "Polygon", "coordinates": [ [ [ -112.055097892543017, 33.551749894095984 ], [ -112.055108856021576, 33.552651698256632 ], [ -112.054031790647713, 33.552660873268366 ], [ -112.054020838355726, 33.551759068795988 ], [ -112.055097892543017, 33.551749894095984 ] ] ] } },
{ "type": "Feature", "properties": { "site_code": "V-16" }, "geometry": { "type": "Polygon", "coordinates": [ [ [ -112.047407722610686, 33.470001375113654 ], [ -112.047418572556339, 33.470903193420334 ], [ -112.046342516904502, 33.470912282052858 ], [ -112.046331678100486, 33.470010463437006 ], [ -112.047407722610686, 33.470001375113654 ] ] ] } },
{ "type": "Feature", "properties": { "site_code": "VALLUT" }, "geometry": { "type": "Polygon", "coordinates": [ [ [ -111.688024218184779, 33.410524412190554 ], [ -111.688031329503332, 33.411426325118235 ], [ -111.68695590543264, 33.411432284554806 ], [ -111.686948805227274, 33.410530371424187 ], [ -111.688024218184779, 33.410524412190554 ] ] ] } },
{ "type": "Feature", "properties": { "site_code": "W-15" }, "geometry": { "type": "Polygon", "coordinates": [ [ [ -111.993003125000584, 33.523394776445116 ], [ -111.993013432253989, 33.524296602268315 ], [ -111.991936697583554, 33.524305230686856 ], [ -111.991926401501928, 33.523403404570374 ], [ -111.993003125000584, 33.523394776445116 ] ] ] } },
{ "type": "Feature", "properties": { "site_code": "W-17" }, "geometry": { "type": "Polygon", "coordinates": [ [ [ -112.000868160831345, 33.444004687646988 ], [ -112.000878518522171, 33.444906522878519 ], [ -111.999802768296675, 33.444915201585864 ], [ -111.999792421733829, 33.444013366058982 ], [ -112.000868160831345, 33.444004687646988 ] ] ] } },
{ "type": "Feature", "properties": { "site_code": "W-6" }, "geometry": { "type": "Polygon", "coordinates": [ [ [ -112.011129173778031, 33.819969696133327 ], [ -112.011139787390249, 33.820871473611106 ], [ -112.010059356447854, 33.820880327688066 ], [ -112.010048754171876, 33.819978549910665 ], [ -112.011129173778031, 33.819969696133327 ] ] ] } },
{ "type": "Feature", "properties": { "site_code": "Y-19" }, "geometry": { "type": "Polygon", "coordinates": [ [ [ -111.915679319512137, 33.376839829739801 ], [ -111.915688771583731, 33.377741697251167 ], [ -111.914613822215756, 33.377749622931233 ], [ -111.914604381236401, 33.376847755149853 ], [ -111.915679319512137, 33.376839829739801 ] ] ] } },
{ "type": "Feature", "properties": { "site_code": "S-17" }, "geometry": { "type": "Polygon", "coordinates": [ [ [ -112.182583953654515, 33.421512946248036 ], [ -112.182596181195564, 33.422414730071822 ], [ -112.181520773609023, 33.422424979055393 ], [ -112.181508557180905, 33.421523194882703 ], [ -112.182583953654515, 33.421512946248036 ] ] ] } }
]
}
