{
"type": "FeatureCollection",
"name": "mcdowell_arthropod_locations",
"crs": { "type": "name", "properties": { "name": "urn:ogc:def:crs:OGC:1.3:CRS84" } },
"features": [
{ "type": "Feature", "properties": { "sampling_location": "Bell_Gateway" }, "geometry": { "type": "Polygon", "coordinates": [ [ [ -111.85737868, 33.64465473 ], [ -111.84875915, 33.64465473 ], [ -111.84875915, 33.64091062 ], [ -111.85737868, 33.64091062 ], [ -111.85737868, 33.64465473 ] ] ] } },
{ "type": "Feature", "properties": { "sampling_location": "DixieMine_Prospector" }, "geometry": { "type": "Polygon", "coordinates": [ [ [ -111.79728311, 33.65274712 ], [ -111.78860491, 33.65274712 ], [ -111.78860491, 33.65147626 ], [ -111.79728311, 33.65147626 ], [ -111.79728311, 33.65274712 ] ] ] } },
{ "type": "Feature", "properties": { "sampling_location": "Rincon_Sunrise" }, "geometry": { "type": "Polygon", "coordinates": [ [ [ -111.81051638, 33.60758124 ], [ -111.80382041, 33.60758124 ], [ -111.80382041, 33.59723604 ], [ -111.81051638, 33.59723604 ], [ -111.81051638, 33.60758124 ] ] ] } },
{ "type": "Feature", "properties": { "sampling_location": "Dixileta_LoneMtn" }, "geometry": { "type": "Polygon", "coordinates": [ [ [ -111.84455705, 33.76265273 ], [ -111.84261538, 33.76265273 ], [ -111.84261538, 33.75610622 ], [ -111.84455705, 33.75610622 ], [ -111.84455705, 33.76265273 ] ] ] } },
{ "type": "Feature", "properties": { "sampling_location": "TomThumb_Paraiso" }, "geometry": { "type": "Polygon", "coordinates": [ [ [ -111.81346891, 33.69408248 ], [ -111.80059623, 33.69408248 ], [ -111.80059623, 33.69171359 ], [ -111.81346891, 33.69171359 ], [ -111.81346891, 33.69408248 ] ] ] } }
]
}
